STARLINK-11361 [DTC]    
1 61585U 24187M   24302.91668981 -.00485455  00000+0 -18300-2 0  9992
2 61585  53.1566 227.2934 0000806 125.4636  13.2893 15.88141120  2709
STARLINK-11360 [DTC]    
1 61586U 24187N   24302.91668981 -.00473000  00000+0 -17489-2 0  9993
2 61586  53.1567 227.2780 0000936 127.6691  18.6504 15.88497687  2754
STARLINK-32353          
1 61587U 24187P   24302.91668981 -.00989306  00000+0 -55335-2 0  9997
2 61587  53.1558 227.4333 0000755 122.6345 308.2228 15.81190771  2760
STARLINK-32325          
1 61588U 24187Q   24302.91668981 -.00971546  00000+0 -54173-2 0  9994
2 61588  53.1560 227.4401 0000537 103.5435 324.2037 15.81213136  2819
STARLINK-32416          
1 61589U 24187R   24302.91668981 -.01006161  00000+0 -56459-2 0  9997
2 61589  53.1559 227.4271 0000605 125.4483 308.4819 15.81167395  2812
STARLINK-32413          
1 61590U 24187S   24303.16667824 -.00973855  00000+0 -55987-2 0  9999
2 61590  53.1558 226.1691 0000638 115.1647 305.3705 15.80562318  2856
STARLINK-32409          
1 61591U 24187T   24303.16667824 -.00991520  00000+0 -57260-2 0  9995
2 61591  53.1557 226.1624 0000551 107.2845 316.4929 15.80512465  2868
STARLINK-32422          
1 61592U 24187U   24303.16667824 -.01006723  00000+0 -58334-2 0  9992
2 61592  53.1558 226.1565 0000633 110.5143 316.1410 15.80479306  2850
STARLINK-32397          
1 61593U 24187V   24302.91668981 -.01080277  00000+0 -60215-2 0  9997
2 61593  53.1557 227.4028 0000622 107.9657 337.4489 15.81082152  2814
ONEWEB-0015             
1 61594U 24188A   24303.25002315 -.00046529  00000+0 -46811-2 0  9997
2 61594  86.5105 166.6836 0004429 164.2676 194.0844 14.91571975  2370
ONEWEB-0687             
1 61595U 24188B   24302.91668981  .00101890  00000+0  10064-1 0  9998
2 61595  86.5104 166.8308 0004017 165.0913 202.7886 14.91415445  2543
ONEWEB-0688             
1 61596U 24188C   24302.91668981  .00028926  00000+0  28885-2 0  9998
2 61596  86.5116 166.8351 0003612 162.0806 202.4932 14.91372083  2317
ONEWEB-0689             
1 61597U 24188D   24302.91668981  .00028307  00000+0  28519-2 0  9996
2 61597  86.5099 166.8352 0002053 150.2572 203.5773 14.91021926  2374
ONEWEB-0690             
1 61598U 24188E   24302.91668981  .00097568  00000+0  95722-2 0  9992
2 61598  86.5110 166.8315 0004977 172.1786 204.2413 14.91708148  2372
ONEWEB-0691             
1 61599U 24188F   24303.16667824 -.00013763  00000+0 -13775-2 0  9991
2 61599  86.5121 166.7255 0004526 168.1636 105.4414 14.91650677  2563
ONEWEB-0692             
1 61600U 24188G   24302.91668981  .00028714  00000+0  29101-2 0  9991
2 61600  86.5134 166.8404 0000978 153.8488 192.6291 14.90783690  2461
ONEWEB-0693             
1 61601U 24188H   24302.91668981  .00029163  00000+0  29436-2 0  9992
2 61601  86.5092 166.8348 0001714 151.8693 199.4668 14.90944607  2467
ONEWEB-0695             
1 61602U 24188J   24303.25002315 -.00046597  00000+0 -47608-2 0  9997
2 61602  86.5137 166.6935 0001680 146.4565 192.1335 14.90962051  2541
ONEWEB-0697             
1 61603U 24188K   24302.91668981  .00028670  00000+0  28989-2 0  9998
2 61603  86.5090 166.8348 0001361 151.1515 198.1145 14.90876346  2528
ONEWEB-0698             
1 61604U 24188L   24302.91668981  .00028995  00000+0  28721-2 0  9993
2 61604  86.5106 166.8304 0004787 172.5918 201.9881 14.91691881  2292
ONEWEB-0699             
1 61605U 24188M   24302.91668981  .00028314  00000+0  28757-2 0  9998
2 61605  86.5119 166.8392 0000637 162.9131 180.9168 14.90700352  2381
ONEWEB-0700             
1 61606U 24188N   24302.91668981  .00028210  00000+0  28455-2 0  9999
2 61606  86.5094 166.8349 0001889 151.3645 201.0833 14.90975006  2438
ONEWEB-0701             
1 61607U 24188P   24303.25002315 -.00047127  00000+0 -47557-2 0  9995
2 61607  86.5120 166.6894 0003924 159.0007 195.5362 14.91454772  2629
ONEWEB-0702             
1 61608U 24188Q   24302.91668981  .00030114  00000+0  29846-2 0  9992
2 61608  86.5104 166.8299 0004641 171.6657 201.9956 14.91664468  2346
ONEWEB-0704             
1 61609U 24188R   24302.91668981  .00027848  00000+0  28248-2 0  9998
2 61609  86.5129 166.8400 0000820 157.1352 188.2276 14.90751982  2398
ONEWEB-0705             
1 61610U 24188S   24303.25002315 -.00047210  00000+0 -47581-2 0  9999
2 61610  86.5122 166.6898 0004076 160.3989 195.3324 14.91505224  2571
ONEWEB-0706             
1 61611U 24188T   24303.25002315 -.00047063  00000+0 -47288-2 0  9990
2 61611  86.5121 166.6894 0004457 166.1379 193.5933 14.91625431  2408
ONEWEB-0707             
1 61612U 24188U   24303.25002315 -.00046737  00000+0 -47837-2 0  9998
2 61612  86.5135 166.6937 0001298 145.8686 190.0270 14.90890910  2341
ONEWEB-0708             
1 61613U 24188V   24302.91668981  .00027904  00000+0  28075-2 0  9994
2 61613  86.5109 166.8360 0002253 149.4365 205.9840 14.91077464  2522
2024-189A               
1 61614U 24189A   24303.18574527  .00014481  00000+0  11400-2 0  9998
2 61614  97.6365 327.9882 0008236 232.9037 127.1435 15.00888530  1079
2024-189B               
1 61615U 24189B   24303.18534185  .00009455  00000+0  74706-3 0  9999
2 61615  97.6361 327.9887 0009237 250.9979 109.0245 15.00850060  1040
2024-189C               
1 61616U 24189C   24303.18515716  .00010071  00000+0  79488-3 0  9997
2 61616  97.6352 327.9875 0009012 292.2786  67.7482 15.00875979  1043
2024-190A               
1 61617U 24190A   24303.19086413  .00030636  00000+0  12606-2 0  9995
2 61617  34.9936 346.3458 0005537 333.0288  27.0138 15.23184774   943
2024-190B               
1 61618U 24190B   24303.18956744  .00035404  00000+0  14405-2 0  9995
2 61618  34.9910 346.3358 0008177 334.2168  25.8138 15.23518070   944
2024-190C               
1 61619U 24190C   24303.18974262  .00009899  00000+0  40720-3 0  9990
2 61619  35.0000 346.3341 0007546 337.4912  22.5471 15.23361601   906
CZ-2C R/B               
1 61620U 24190D   24303.19348586  .00532652  90294-4  11667-2 0  9991
2 61620  35.0098 343.4260 0181658  84.4067 277.7351 15.74317754   895
